#aV2021  3  2  0  0  0.00000000     288 DD+AD WGS84 FIT  NGA
## 2147 172800.00000000   300.00000000 59275 0.0000000000000
+   32     1  2  3  4  5  6  7  8  9 10 11 12 13 14 15 16 17
+         18 19 20 21 22 23 24 25 26 27 28 29 30 31 32  0  0
+          0  0  0  0  0  0  0  0  0  0  0  0  0  0  0  0  0
+          0  0  0  0  0  0  0  0  0  0  0  0  0  0  0  0  0
+          0  0  0  0  0  0  0  0  0  0  0  0  0  0  0  0  0
++         2  2  2  2  2  2  2  2  2  2  2  2  2  2  2  2  2
++         2  2  2  2  2  2  2  2  2  2  2  2  2  2  2  0  0
++         0  0  0  0  0  0  0  0  0  0  0  0  0  0  0  0  0
++         0  0  0  0  0  0  0  0  0  0  0  0  0  0  0  0  0
++         0  0  0  0  0  0  0  0  0  0  0  0  0  0  0  0  0
%c cc cc ccc ccc cccc cccc cccc cccc ccccc ccccc ccccc ccccc
%c cc cc ccc ccc cccc cccc cccc cccc ccccc ccccc ccccc ccccc
%f  0.0000000  0.000000000  0.00000000000  0.000000000000000
%f  0.0000000  0.000000000  0.00000000000  0.000000000000000
%i    0    0    0    0      0      0      0      0         0
%i    0    0    0    0      0      0      0      0         0
/*      NGA, ST. LOUIS,MO.                                  
/*   EPHEMERIS COMPUTED FROM 2 DAYS OF DATA                 
/*   EPOCHA v5 SMOOTHER                                     
/*   G2139 IERS2010 SATAF SATAPC                            
*  2021  3  2 16 15  0.00000000
P  1 -12888.655544 -13482.752012 -19287.283390    750.183951                    
V  1  23808.096150    339.708436 -16021.888508     -0.083063                    
P  2 -12231.390344  14074.627464  19586.344849   -582.159393                    
V  2 -23488.504269   -335.218717 -14907.687372     -0.038066                    
P  3 -13071.705118 -23154.265201   1166.820685    -97.096295                    
V  3   1475.811253  -2550.332217 -31805.308402     -0.103364                    
P  4  -3772.891713 -18124.933087  19030.865593   -183.709333                    
V  4  14728.997580 -19217.179228 -15436.260450     -0.023767                    
P  5    428.896381  21853.345457  14812.742884    -35.112890                    
V  5 -11547.800235 -15466.998742  23100.000199     -0.010413                    
P  6 -23421.008305   6354.645001  10926.340872     -0.965454                    
V  6 -13642.484629  -2333.342300 -27998.054065      0.015713                    
P  7 -24312.785656  -7457.530558   8819.580133     76.633443                    
V  7  10707.983110  -1869.036011  28569.719346      0.128066                    
P  8   1891.649826 -22119.009223 -14347.698958    -12.224766                    
V  8  11355.167788 -14548.267352  24214.650948     -0.014253                    
P  9 -13419.405088  -7451.659255  21614.579588   -327.614259                    
V  9  14292.816038 -23629.883363    703.274546     -0.033465                    
P 10  16502.951025    673.311414 -20745.734670    -72.605113                    
V 10  11781.992576  23762.167199   9829.817475     -0.080281                    
P 11  -5282.555012 -15640.771443 -21278.094334    -10.048666                    
V 11  23672.736336 -11149.814276   1999.003132      0.106221                    
P 12   8885.997272  24994.223806  -2775.933091     -8.353279                    
V 12  -3313.411790  -2039.564647 -31696.898057     -0.052805                    
P 13 -11958.878842  22464.812686  -7506.169174    103.184772                    
V 13  -7911.581770   5614.878097  30067.492056      0.043775                    
P 14 -16927.141788  -2413.088277 -20339.237688     99.351918                    
V 14 -10034.604102 -23798.799054  11168.284458      0.010718                    
P 15   1346.140132  22232.139060 -14554.468033   -165.855925                    
V 15 -10509.784154  15036.070054  22909.510182      0.025859                    
P 16   3540.140419 -20271.320270  16282.517100   -287.955836                    
V 16   9961.883719  18910.356097  21519.712125     -0.057496                    
P 17 -19291.985123   9695.607266 -15034.849630    403.002604                    
V 17  10200.849629 -17076.184349 -23440.151294      0.063913                    
P 18  25483.569759   5312.139242   5424.528182    349.356447                    
V 18  -7017.652694   2073.422453  30856.282544      0.012601                    
P 19 -19777.869054  15346.681894  -9012.274458    -31.612477                    
V 19   5282.394943  -9906.208315 -29475.136183      0.050111                    
P 20  20227.875127  11353.181660 -13230.563141    524.447481                    
V 20   7666.362370  15029.288265  24441.745722     -0.001868                    
P 21  -4788.652640 -14640.943520 -20956.245281     99.908152                    
V 21  28272.523597  -1291.112318  -4941.587185      0.031056                    
P 22  -8904.725428 -23869.935780  -7618.395669   -668.779886                    
V 22   8228.824895   6479.250349 -28984.184188      0.078035                    
P 23  18536.789246  11539.348412 -15171.203169    118.213995                    
V 23   7675.691445  17712.348027  22841.601270     -0.004333                    
P 24   7667.818647  15106.809790 -20771.467867      1.627429                    
V 24 -25817.238500   1489.263354  -8153.786352     -0.005172                    
P 25  17087.750710  17943.809214   9676.633895     90.939620                    
V 25   3784.294008  12216.975839 -28297.074601      0.075616                    
P 26  10447.989640 -12347.520903  20975.970044     52.406972                    
V 26  14201.294528  22823.535473   6609.999204      0.054302                    
P 27  11832.198029 -23304.917466  -3581.505167    -86.404084                    
V 27   4517.743345  -2338.571326  31920.720422     -0.072793                    
P 28 -15417.057961    129.439613 -21042.068283    608.043537                    
V 28 -10025.231235 -26190.724317   7183.349275     -0.055988                    
P 29  12377.304575   7913.965626  22085.876888   -304.566994                    
V 29 -16602.869882  22638.589606   1151.998263     -0.069517                    
P 30 -26449.477394    744.580897  -3400.525169   -392.557041                    
V 30  -4131.498741  -3617.222241  30679.371956     -0.056317                    
P 31  22176.939982  -7631.880651  12820.627611   -103.208095                    
V 31  16073.390249   3135.623986 -25315.932433     -0.022715                    
P 32  19010.892836 -11437.485154 -14375.625804     20.301428                    
V 32  -7783.962831  16944.958568 -23777.305708      0.009605                    
EOF
